OBJECT_NAME,OBJECT_ID,EPOCH,MEAN_MOTION,ECCENTRICITY,INCLINATION,RA_OF_ASC_NODE,ARG_OF_PERICENTER,MEAN_ANOMALY,EPHEMERIS_TYPE,CLASSIFICATION_TYPE,NORAD_CAT_ID,ELEMENT_SET_NO,REV_AT_EPOCH,BSTAR,MEAN_MOTION_DOT,MEAN_MOTION_DDOT
STARLINK-32885,2025-029L,2026-07-15T10:35:02.963328,15.34398498,.00008549,53.1629,355.0422,99.8089,260.3010,0,U,62958,999,8093,.66064867E-3,.22009E-3,0
STARLINK-32896,2025-029M,2026-07-15T17:05:11.417280,15.30199493,.00013762,53.1629,358.1417,91.7153,268.4006,0,U,62959,999,8091,.38295842E-3,.11E-3,0
STARLINK-32877,2025-029N,2026-07-15T17:37:11.485344,15.34397378,.00009886,53.1603,357.5711,97.3598,262.7517,0,U,62960,999,8090,.4833489E-3,.15988E-3,0
STARLINK-32889,2025-029P,2026-07-15T11:12:54.895392,15.34403446,.00012025,53.1602,358.7521,99.7653,260.3486,0,U,62961,999,8088,.52064973E-3,.17257E-3,0
STARLINK-32858,2025-029Q,2026-07-15T20:17:41.777088,15.30205474,.0001638,53.1628,356.8452,92.9238,267.1950,0,U,62962,999,8092,.5465E-3,.15864E-3,0
STARLINK-32882,2025-029R,2026-07-15T19:39:38.466144,15.34417998,.00016791,53.1587,353.1383,63.7936,296.3239,0,U,62963,999,8099,.63417769E-3,.21123E-3,0
STARLINK-32887,2025-029S,2026-07-15T11:11:24.366336,15.34394625,.00014789,53.1600,355.1994,110.3762,249.7399,0,U,62964,999,8093,.38084893E-3,.12511E-3,0
STARLINK-32836,2025-029T,2026-07-15T17:47:47.939712,15.34391379,.00008842,53.1593,354.0746,96.6826,263.4277,0,U,62965,999,8097,.20596458E-3,.6587E-4,0
STARLINK-32888,2025-029U,2026-07-16T03:21:10.479168,15.34399050,.000082,53.1603,355.8440,95.0419,265.0677,0,U,62966,999,8098,.37477E-3,.12306E-3,0
STARLINK-32897,2025-029V,2026-07-16T03:11:16.746144,15.34395726,.0001429,53.1614,353.6612,77.7073,282.4090,0,U,62967,999,8101,.39893E-3,.13124E-3,0
STARLINK-32863,2025-029W,2026-07-15T17:51:26.585280,15.31707643,.00012716,53.1601,356.9240,95.5530,264.5617,0,U,62968,999,8007,.41612251E-3,.12572E-3,0
STARLINK-32894,2025-029X,2026-07-16T04:00:01.998720,15.33555383,.0001334,53.1611,355.4377,71.5153,213.0753,0,U,62969,999,590,-.33036E-3,-.11224E-3,0
STARLINK-32826,2025-029Y,2026-07-15T17:20:13.502400,15.30190499,.0001065,53.1612,357.4901,84.2104,275.9018,0,U,62970,999,8092,.41058073E-3,.11817E-3,0
HULIANWANG DIGUI-11,2025-030A,2026-07-16T04:18:29.555136,13.29324440,.0000986,49.9999,131.8330,276.5758,83.5002,0,U,62971,999,6971,.25184E-4,-.112E-5,0
HULIANWANG DIGUI-12,2025-030B,2026-07-16T04:30:27.768960,13.29322289,.0000947,50.0015,131.9384,275.6604,84.4160,0,U,62972,999,6971,.47574E-4,-.102E-5,0
HULIANWANG DIGUI-13,2025-030C,2026-07-16T04:06:16.352640,13.29324427,.0000764,50.0018,131.8663,276.1465,83.9320,0,U,62973,999,6971,.32304E-4,-.109E-5,0
HULIANWANG DIGUI-14,2025-030D,2026-07-16T03:30:16.453728,13.29327487,.0000767,50.0024,131.7591,279.5037,80.5749,0,U,62974,999,6971,.21086E-4,-.114E-5,0
HULIANWANG DIGUI-15,2025-030E,2026-07-16T03:54:16.834176,13.29324503,.0000856,50.0019,131.8260,279.5412,80.5364,0,U,62975,999,6971,.49705E-4,-.101E-5,0
HULIANWANG DIGUI-16,2025-030F,2026-07-16T03:18:21.525696,13.29325622,.0000731,50.0041,131.7860,278.0015,82.0775,0,U,62976,999,6971,.42496E-4,-.104E-5,0
HULIANWANG DIGUI-17,2025-030G,2026-07-16T03:06:11.219328,13.29325647,.0000849,50.0054,131.7937,270.1938,89.8836,0,U,62977,999,6971,.20423E-4,-.115E-5,0
HULIANWANG DIGUI-18,2025-030H,2026-07-16T04:42:23.355360,13.29327618,.0000881,50.0058,131.4951,270.1142,89.9629,0,U,62978,999,6972,.38094E-4,-.106E-5,0
HULIANWANG DIGUI-19,2025-030J,2026-07-16T03:42:26.233056,13.29319060,.0000774,50.0043,131.8805,268.5917,91.4867,0,U,62979,999,6971,.20879E-4,-.114E-5,0
STARLINK-11543 [DTC],2025-031A,2026-07-15T17:30:43.445664,15.70884275,.00016358,42.9997,309.3330,283.7710,76.2975,0,U,62981,999,8288,.12526307E-2,.163792E-2,0
STARLINK-11458 [DTC],2025-031B,2026-07-15T08:44:18.036960,15.70948465,.00015715,42.9998,311.7607,255.7193,104.3500,0,U,62982,999,8282,.12581505E-2,.164984E-2,0
STARLINK-11417 [DTC],2025-031C,2026-07-15T18:47:11.036832,15.70870613,.00011645,42.9996,309.7600,287.4432,72.6309,0,U,62983,999,8288,.10353095E-2,.134742E-2,0
STARLINK-11544 [DTC],2025-031D,2026-07-15T08:36:39.032640,15.70905329,.00019679,42.9992,311.7161,272.2827,87.7815,0,U,62984,999,8279,.85761854E-3,.11139E-2,0
STARLINK-11582 [DTC],2025-031E,2026-07-15T15:05:50.009856,15.70874152,.0003127,42.9987,310.3129,309.6443,50.4148,0,U,62985,999,8286,.10016E-2,.130307E-2,0
STARLINK-11571 [DTC],2025-031F,2026-07-15T11:16:50.335392,15.70841126,.00034162,42.9991,310.8207,294.6795,65.3717,0,U,62986,999,8284,.10521618E-2,.136833E-2,0
STARLINK-11539 [DTC],2025-031G,2026-07-16T04:42:13.040064,15.70958273,.0002488,42.9999,306.8175,298.4978,61.5639,0,U,62987,999,8295,.10493E-2,.137127E-2,0
STARLINK-11542 [DTC],2025-031H,2026-07-15T19:09:55.236672,15.70904452,.00035377,43.0024,308.9920,297.4864,62.5644,0,U,62988,999,8286,.11362403E-2,.148407E-2,0
