STARLINK-32885          
1 62958U 25029L   26196.44100652  .00022009  00000+0  66065-3 0  9992
2 62958  53.1629 355.0422 0000854  99.8089 260.3010 15.34398498 80935
STARLINK-32896          
1 62959U 25029M   26196.71193770  .00011000  00000+0  38296-3 0  9990
2 62959  53.1629 358.1417 0001376  91.7153 268.4006 15.30199493 80919
STARLINK-32877          
1 62960U 25029N   26196.73416071  .00015988  00000+0  48335-3 0  9990
2 62960  53.1603 357.5711 0000988  97.3598 262.7517 15.34397378 80905
STARLINK-32889          
1 62961U 25029P   26196.46730203  .00017257  00000+0  52065-3 0  9993
2 62961  53.1602 358.7521 0001202  99.7653 260.3486 15.34403446 80885
STARLINK-32858          
1 62962U 25029Q   26196.84562242  .00015864  00000+0  54650-3 0  9996
2 62962  53.1628 356.8452 0001638  92.9238 267.1950 15.30205474 80926
STARLINK-32882          
1 62963U 25029R   26196.81919521  .00021123  00000+0  63418-3 0  9997
2 62963  53.1587 353.1383 0001679  63.7936 296.3239 15.34417998 80991
STARLINK-32887          
1 62964U 25029S   26196.46625424  .00012511  00000+0  38085-3 0  9998
2 62964  53.1600 355.1994 0001478 110.3762 249.7399 15.34394625 80935
STARLINK-32836          
1 62965U 25029T   26196.74152708  .00006587  00000+0  20596-3 0  9994
2 62965  53.1593 354.0746 0000884  96.6826 263.4277 15.34391379 80972
STARLINK-32888          
1 62966U 25029U   26197.13970462  .00012306  00000+0  37477-3 0  9996
2 62966  53.1603 355.8440 0000820  95.0419 265.0677 15.34399050 80983
STARLINK-32897          
1 62967U 25029V   26197.13283271  .00013124  00000+0  39893-3 0  9995
2 62967  53.1614 353.6612 0001429  77.7073 282.4090 15.34395726 81015
STARLINK-32863          
1 62968U 25029W   26196.74405770  .00012572  00000+0  41612-3 0  9990
2 62968  53.1601 356.9240 0001271  95.5530 264.5617 15.31707643 80079
STARLINK-32894          
1 62969U 25029X   26197.16668980 -.00011224  00000+0 -33036-3 0  9998
2 62969  53.1611 355.4377 0001334  71.5153 213.0753 15.33555383  5904
STARLINK-32826          
1 62970U 25029Y   26196.72237850  .00011817  00000+0  41058-3 0  9998
2 62970  53.1612 357.4901 0001065  84.2104 275.9018 15.30190499 80926
HULIANWANG DIGUI-11     
1 62971U 25030A   26197.17950874 -.00000112  00000+0  25184-4 0  9999
2 62971  49.9999 131.8330 0000986 276.5758  83.5002 13.29324440 69711
HULIANWANG DIGUI-12     
1 62972U 25030B   26197.18782140 -.00000102  00000+0  47574-4 0  9996
2 62972  50.0015 131.9384 0000947 275.6604  84.4160 13.29322289 69715
HULIANWANG DIGUI-13     
1 62973U 25030C   26197.17102260 -.00000109  00000+0  32304-4 0  9997
2 62973  50.0018 131.8663 0000764 276.1465  83.9320 13.29324427 69714
HULIANWANG DIGUI-14     
1 62974U 25030D   26197.14602377 -.00000114  00000+0  21086-4 0  9990
2 62974  50.0024 131.7591 0000767 279.5037  80.5749 13.29327487 69713
HULIANWANG DIGUI-15     
1 62975U 25030E   26197.16269484 -.00000101  00000+0  49705-4 0  9995
2 62975  50.0019 131.8260 0000856 279.5412  80.5364 13.29324503 69717
HULIANWANG DIGUI-16     
1 62976U 25030F   26197.13774914 -.00000104  00000+0  42496-4 0  9995
2 62976  50.0041 131.7860 0000731 278.0015  82.0775 13.29325622 69719
HULIANWANG DIGUI-17     
1 62977U 25030G   26197.12929652 -.00000115  00000+0  20423-4 0  9994
2 62977  50.0054 131.7937 0000849 270.1938  89.8836 13.29325647 69716
HULIANWANG DIGUI-18     
1 62978U 25030H   26197.19610365 -.00000106  00000+0  38094-4 0  9993
2 62978  50.0058 131.4951 0000881 270.1142  89.9629 13.29327618 69729
HULIANWANG DIGUI-19     
1 62979U 25030J   26197.15447029 -.00000114  00000+0  20879-4 0  9996
2 62979  50.0043 131.8805 0000774 268.5917  91.4867 13.29319060 69711
STARLINK-11543 [DTC]    
1 62981U 25031A   26196.72966951  .00163792  00000+0  12526-2 0  9991
2 62981  42.9997 309.3330 0001635 283.7710  76.2975 15.70884275 82881
STARLINK-11458 [DTC]    
1 62982U 25031B   26196.36409765  .00164984  00000+0  12582-2 0  9993
2 62982  42.9998 311.7607 0001571 255.7193 104.3500 15.70948465 82823
STARLINK-11417 [DTC]    
1 62983U 25031C   26196.78276663  .00134742  00000+0  10353-2 0  9992
2 62983  42.9996 309.7600 0001164 287.4432  72.6309 15.70870613 82887
STARLINK-11544 [DTC]    
1 62984U 25031D   26196.35878510  .00111390  00000+0  85762-3 0  9996
2 62984  42.9992 311.7161 0001967 272.2827  87.7815 15.70905329 82792
STARLINK-11582 [DTC]    
1 62985U 25031E   26196.62905104  .00130307  00000+0  10016-2 0  9995
2 62985  42.9987 310.3129 0003127 309.6443  50.4148 15.70874152 82868
STARLINK-11571 [DTC]    
1 62986U 25031F   26196.47002703  .00136833  00000+0  10522-2 0  9994
2 62986  42.9991 310.8207 0003416 294.6795  65.3717 15.70841126 82840
STARLINK-11539 [DTC]    
1 62987U 25031G   26197.19598426  .00137127  00000+0  10493-2 0  9991
2 62987  42.9999 306.8175 0002488 298.4978  61.5639 15.70958273 82956
STARLINK-11542 [DTC]    
1 62988U 25031H   26196.79855598  .00148407  00000+0  11362-2 0  9992
2 62988  43.0024 308.9920 0003537 297.4864  62.5644 15.70904452 82865
